API VERSION: 1.2
API SOURCE: NASA/JPL Horizons API



*******************************************************************************
Ephemeris / API_USER Fri Apr  3 11:28:52 2026 Pasadena, USA      / Horizons
*******************************************************************************
Target body name: Jupiter (599)                   {source: jup365_merged}
Center body name: Sun (10)                        {source: jup365_merged}
Center-site name: BODY CENTER
*******************************************************************************
Start time      : A.D. 2028-Jun-22 12:45:59.9996 TDB
Stop  time      : A.D. 2028-Jun-24 12:45:59.9996 TDB
Step-size       : 60 minutes
*******************************************************************************
Center geodetic : 0.0, 0.0, 0.0                   {E-lon(deg),Lat(deg),Alt(km)}
Center cylindric: 0.0, 0.0, 0.0                   {E-lon(deg),Dxy(km),Dz(km)}
Center radii    : 695700.0, 695700.0, 695700.0 km {Equator_a, b, pole_c}
Output units    : AU-D
Calendar mode   : Mixed Julian/Gregorian
Output type     : GEOMETRIC cartesian states
Output format   : 3 (position, velocity, LT, range, range-rate)
Reference frame : Ecliptic of J2000.0
*******************************************************************************
            JDTDB,            Calendar Date (TDB),                      X,                      Y,                      Z,                     VX,                     VY,                     VZ,                     LT,                     RG,                     RR,
**************************************************************************************************************************************************************************************************************************************************************************
$$SOE
2461946.281944440, A.D. 2028-Jun-23 18:45:59.9996, -5.444124128641961E+00, -1.797728192671454E-03,  1.218158837602500E-01, -8.518729797867539E-05, -7.199518773265076E-03,  3.188891535814257E-05,  3.145051062966178E-02,  5.445487110390082E+00,  8.825612271515708E-05,
2461946.323611106, A.D. 2028-Jun-23 19:45:59.9996, -5.444127670992897E+00, -2.097706883735079E-03,  1.218172122937519E-01, -8.484687107394403E-05, -7.199459694217541E-03,  3.188062702701144E-05,  3.145053187478347E-02,  5.445490788868872E+00,  8.831218021049279E-05,
2461946.365277773, A.D. 2028-Jun-23 20:45:59.9996, -5.444131199317378E+00, -2.397683283579583E-03,  1.218185404735074E-01, -8.451384392006973E-05, -7.199408986816447E-03,  3.187193140504920E-05,  3.145055313430557E-02,  5.445494469841017E+00,  8.837561985784523E-05,
2461946.406944440, A.D. 2028-Jun-23 21:45:59.9996, -5.444134713899874E+00, -2.697657763410403E-03,  1.218198682820982E-01, -8.418705152001007E-05, -7.199367688482120E-03,  3.186280858247519E-05,  3.145057440986707E-02,  5.445498153590298E+00,  8.844527889602052E-05,
2461946.448611106, A.D. 2028-Jun-23 22:45:59.9996, -5.444138214973792E+00, -2.997630733289219E-03,  1.218211957014667E-01, -8.386520800555855E-05, -7.199336632114093E-03,  3.185324761591624E-05,  3.145059570281263E-02,  5.445501840349535E+00,  8.851987409081703E-05,
2461946.490277773, A.D. 2028-Jun-23 23:45:59.9996, -5.444141702716571E+00, -3.297602634031083E-03,  1.218225227132762E-01, -8.354691554821029E-05, -7.199316461285855E-03,  3.184324604756673E-05,  3.145061701416434E-02,  5.445505530295700E+00,  8.859801057515526E-05,
2461946.531944440, A.D. 2028-Jun-24 00:45:59.9996, -5.444145177245412E+00, -3.597573929248036E-03,  1.218238492992636E-01, -8.323068429885768E-05, -7.199307624858648E-03,  3.183280985374736E-05,  3.145063834459714E-02,  5.445509223545650E+00,  8.867820171650774E-05,
2461946.573611106, A.D. 2028-Jun-24 01:45:59.9996, -5.444148638613981E+00, -3.897545096979619E-03,  1.218251754415910E-01, -8.291495959678003E-05, -7.199310364224672E-03,  3.182195348785938E-05,  3.145065969441978E-02,  5.445512920152850E+00,  8.875889624631494E-05,
2461946.615277773, A.D. 2028-Jun-24 02:45:59.9996, -5.444152086810361E+00, -4.197516620779362E-03,  1.218265011231991E-01, -8.259815372572872E-05, -7.199324700874296E-03,  3.181069982680834E-05,  3.145068106356313E-02,  5.445516620105325E+00,  8.883850992851065E-05,
2461946.656944440, A.D. 2028-Jun-24 03:45:59.9996, -5.444155521756390E+00, -4.497488980365395E-03,  1.218278263281530E-01, -8.227868021832457E-05, -7.199350428369067E-03,  3.179907992466401E-05,  3.145070245157622E-02,  5.445520323324996E+00,  8.891545977035528E-05,
2461946.698611106, A.D. 2028-Jun-24 04:45:59.9996, -5.444158943308437E+00, -4.797462642062871E-03,  1.218291510419745E-01, -8.195498919439443E-05, -7.199387110543580E-03,  3.178713253698962E-05,  3.145072385763086E-02,  5.445524029668462E+00,  8.898819926436604E-05,
2461946.740277773, A.D. 2028-Jun-24 05:45:59.9996, -5.444162351259668E+00, -5.097438049311349E-03,  1.218304752519486E-01, -8.162560252875193E-05, -7.199434086429902E-03,  3.177490341513714E-05,  3.145074528053456E-02,  5.445527738929256E+00,  8.905525346035614E-05,
2461946.781944440, A.D. 2028-Jun-24 06:45:59.9996, -5.444165745343750E+00, -5.397415613514200E-03,  1.218317989473970E-01, -8.128914783363645E-05, -7.199490481677848E-03,  3.176244438987974E-05,  3.145076671875199E-02,  5.445531450841537E+00,  8.911525285621377E-05,
2461946.823611106, A.D. 2028-Jun-24 07:45:59.9996, -5.444169125239927E+00, -5.697395705489669E-03,  1.218331221199087E-01, -8.094439035525744E-05, -7.199555225897904E-03,  3.174981227427558E-05,  3.145078817043408E-02,  5.445535165085152E+00,  8.916696521000812E-05,
2461946.865277773, A.D. 2028-Jun-24 08:45:59.9996, -5.444172490579373E+00, -5.997378647755633E-03,  1.218344447635224E-01, -8.059026195824015E-05, -7.199627075215717E-03,  3.173706762054870E-05,  3.145080963345473E-02,  5.445538881291979E+00,  8.920932445000811E-05,
2461946.906944440, A.D. 2028-Jun-24 09:45:59.9996, -5.444175840952671E+00, -6.297364707849651E-03,  1.218357668748544E-01, -8.022588643337733E-05, -7.199704639287168E-03,  3.172427336782351E-05,  3.145083110545382E-02,  5.445542599053373E+00,  8.924145592044191E-05,
2461946.948611106, A.D. 2028-Jun-24 10:45:59.9996, -5.444179175918268E+00, -6.597354092854563E-03,  1.218370884531686E-01, -7.985060043241179E-05, -7.199786412013619E-03,  3.171149341832055E-05,  3.145085258388594E-02,  5.445546317928613E+00,  8.926269726876012E-05,
2461946.990277773, A.D. 2028-Jun-24 11:45:59.9996, -5.444182495011693E+00, -6.897346945267359E-03,  1.218384095003862E-01, -7.946396942115825E-05, -7.199870805181683E-03,  3.169879117998948E-05,  3.145087406607349E-02,  5.445550037454087E+00,  8.927261436734291E-05,
2461947.031944440, A.D. 2028-Jun-24 12:45:59.9996, -5.444185797755325E+00, -7.197343340316673E-03,  1.218397300210348E-01, -7.906579815565419E-05, -7.199956184218075E-03,  3.168622811368274E-05,  3.145089554926296E-02,  5.445553757153036E+00,  8.927101177551555E-05,
